     2.11           N: GPS NAV DATA                         RINEX VERSION / TYPE
teqc  2019Feb25                         20230504 17:05:52UTCPGM / RUN BY / DATE
Linux2.6.32-573.12.1.el6.x86_64|x86_64|gcc|Win64-MinGW64|=+ COMMENT
                                                            END OF HEADER
32 21 10 19  2  0  0.0-1.172162592411D-05-4.206412995700D-12 0.000000000000D+00
    7.200000000000D+01-6.921875000000D+01 4.558047003810D-09 7.410798750314D-01
   -3.725290298462D-06 5.138469394296D-03 9.674578905106D-06 5.153734769821D+03
    1.800000000000D+05-4.097819328308D-08 2.293678305525D+00 6.705522537231D-08
    9.576429382666D-01 1.913437500000D+02-2.386077296897D+00-8.154625387165D-09
   -4.935919886590D-10 1.000000000000D+00 2.180000000000D+03 0.000000000000D+00
    2.000000000000D+00 0.000000000000D+00 4.656612873077D-10 7.200000000000D+01
    1.728180000000D+05 4.000000000000D+00
25 21 10 19  2  0  0.0 2.266648225486D-04 6.139089236967D-12 0.000000000000D+00
    6.300000000000D+01 2.256250000000D+01 4.979135972428D-09 2.558287655155D+00
    1.005828380585D-06 9.903672616929D-03 2.559274435043D-06 5.153761802673D+03
    1.800000000000D+05-7.450580596924D-09-1.891888876171D+00-1.732259988785D-07
    9.589342516664D-01 3.280625000000D+02 9.639759662226D-01-8.349633510036D-09
    9.464679956196D-11 1.000000000000D+00 2.180000000000D+03 0.000000000000D+00
    2.000000000000D+00 0.000000000000D+00 5.587935447693D-09 6.300000000000D+01
    1.728180000000D+05 4.000000000000D+00
16 21 10 19  2  0  0.0-4.093856550753D-04-6.366462912410D-12 0.000000000000D+00
    7.000000000000D+01 1.003125000000D+01 4.912347476133D-09 8.742021798812D-01
    7.729977369308D-07 1.231011853088D-02 2.777203917503D-06 5.153767885208D+03
    1.800000000000D+05-7.264316082001D-08-1.797862615189D+00 1.285225152969D-07
    9.714974000691D-01 3.314062500000D+02 6.815402927060D-01-8.618216126152D-09
   -1.300054152474D-10 1.000000000000D+00 2.180000000000D+03 0.000000000000D+00
    2.000000000000D+00 0.000000000000D+00-1.024454832077D-08 7.000000000000D+01
    1.728180000000D+05 4.000000000000D+00
27 21 10 19  2  0  0.0-2.080546692014D-04-5.002220859751D-12 0.000000000000D+00
    5.900000000000D+01-8.571875000000D+01 4.301250592923D-09-1.032135810885D-02
   -4.455447196960D-06 9.584823623300D-03 8.964911103249D-06 5.153646713257D+03
    1.800000000000D+05 5.960464477539D-08-8.409245854615D-01 1.005828380585D-07
    9.746131712706D-01 2.111562500000D+02 6.299186652466D-01-8.139267604595D-09
   -5.975248893100D-10 1.000000000000D+00 2.180000000000D+03 0.000000000000D+00
    2.000000000000D+00 0.000000000000D+00 1.862645149231D-09 5.900000000000D+01
    1.728180000000D+05 4.000000000000D+00
 4 21 10 19  2  0  0.0-2.034655772150D-04 5.684341886081D-13 0.000000000000D+00
    2.250000000000D+02-7.443750000000D+01 4.413398121461D-09-3.987584635134D-01
   -3.840774297714D-06 1.462912303396D-03 9.749084711075D-06 5.153690063477D+03
    1.800000000000D+05 6.519258022308D-08 2.335004445119D+00-1.117587089539D-08
    9.608438337453D-01 1.896562500000D+02-3.109875574366D+00-8.056764167995D-09
   -4.450185368083D-10 1.000000000000D+00 2.180000000000D+03 0.000000000000D+00
    2.000000000000D+00 0.000000000000D+00-4.190951585770D-09 9.930000000000D+02
    1.734420000000D+05 4.000000000000D+00
 4 21 10 19  2 44 32.0-2.034641802311D-04 5.684341886081D-13 0.000000000000D+00
    2.260000000000D+02-7.315625000000D+01 4.425184326689D-09-9.093520724496D-03
   -3.764405846596D-06 1.462442916818D-03 9.965151548386D-06 5.153689193726D+03
    1.826720000000D+05 5.215406417847D-08 2.334982929983D+00-1.862645149231D-09
    9.608425917278D-01 1.860937500000D+02-3.109810696875D+00-8.067836057755D-09
   -4.468043254793D-10 1.000000000000D+00 2.180000000000D+03 0.000000000000D+00
    2.000000000000D+00 0.000000000000D+00-4.190951585770D-09 9.940000000000D+02
    1.755180000000D+05 4.000000000000D+00
 8 21 10 19  2  0  0.0-4.062196239829D-05-1.364242052659D-12 0.000000000000D+00
    7.100000000000D+01-9.315625000000D+01 4.468757570261D-09 1.138364305214D-01
   -4.965811967850D-06 6.618772516958D-03 8.761882781982D-06 5.153668081284D+03
    1.800000000000D+05 1.043081283569D-07-8.593689205535D-01 1.117587089539D-08
    9.659529186049D-01 2.114062500000D+02 5.261125057833D-02-8.176412008951D-09
   -5.982392047784D-10 1.000000000000D+00 2.180000000000D+03 0.000000000000D+00
    2.800000000000D+00 0.000000000000D+00 5.122274160385D-09 7.100000000000D+01
    1.760880000000D+05 4.000000000000D+00
 6 21 10 19 14  0  0.0 9.805476292968D-05 8.412825991400D-12 0.000000000000D+00
    7.200000000000D+01 2.715625000000D+01 3.841588589013D-09-1.827890993945D+00
    1.536682248116D-06 2.265596645884D-03 1.173838973045D-05 5.153600271225D+03
    2.232000000000D+05-5.774199962616D-08 2.088820235633D-01-5.587935447693D-09
    9.855510937590D-01 1.685000000000D+02-1.033316763208D+00-7.601388056895D-09
    4.153744448700D-10 1.000000000000D+00 2.180000000000D+03 0.000000000000D+00
    2.000000000000D+00 0.000000000000D+00 4.190951585770D-09 7.200000000000D+01
    2.193180000000D+05 4.000000000000D+00
11 21 10 19 14  0  0.0 2.124579623342D-05 0.000000000000D+00 0.000000000000D+00
    1.200000000000D+01 3.278125000000D+01 4.396968865688D-09 5.333750938307D-01
    1.778826117516D-06 4.551658639684D-04 1.101009547710D-05 5.153722230911D+03
    2.232000000000D+05-3.539025783539D-08 2.636346146285D-01-2.048909664154D-08
    9.611339011420D-01 1.682812500000D+02 2.317651657574D+00-7.912472443380D-09
    4.407326439980D-10 1.000000000000D+00 2.180000000000D+03 0.000000000000D+00
    2.000000000000D+00 6.300000000000D+01-8.847564458847D-09 5.240000000000D+02
    2.193180000000D+05 4.000000000000D+00
30 21 10 19 14  0  0.0-4.837871529162D-04-3.410605131648D-12 0.000000000000D+00
    2.600000000000D+01 6.859375000000D+01 4.785556480493D-09-2.910723323858D+00
    3.468245267868D-06 5.350646679290D-03 1.109577715397D-05 5.153638286591D+03
    2.232000000000D+05-4.656612873077D-08-2.913862787018D+00-4.842877388000D-08
    9.369459082893D-01 1.520937500000D+02-2.738247355268D+00-8.064978795882D-09
    1.982225424788D-10 1.000000000000D+00 2.180000000000D+03 0.000000000000D+00
    2.000000000000D+00 0.000000000000D+00 3.725290298462D-09 2.600000000000D+01
    2.193180000000D+05 4.000000000000D+00
 2 21 10 19 14  0  0.0-6.381794810295D-04-1.818989403546D-12 0.000000000000D+00
    2.300000000000D+01 2.709375000000D+01 4.171245177676D-09-1.966705322862D+00
    1.700595021248D-06 2.035120455548D-02 1.161359250546D-05 5.153782978058D+03
    2.232000000000D+05 2.328306436539D-07 1.303938017109D-01 3.594905138016D-07
    9.646343393379D-01 1.535000000000D+02-1.486686224872D+00-7.583173012451D-09
    3.596578383355D-10 1.000000000000D+00 2.180000000000D+03 0.000000000000D+00
    2.000000000000D+00 0.000000000000D+00-1.769512891769D-08 2.300000000000D+01
    2.193180000000D+05 4.000000000000D+00
 7 21 10 19 14  0  0.0 2.649701200426D-04 6.139089236967D-12 0.000000000000D+00
    7.100000000000D+01 7.237500000000D+01 4.334109104469D-09-2.832257701165D+00
    3.587454557419D-06 1.529188535642D-02 1.151673495770D-05 5.153738927841D+03
    2.232000000000D+05 9.499490261078D-08-2.928808641299D+00-2.272427082062D-07
    9.517673852748D-01 1.492500000000D+02-2.303608034613D+00-7.727464737066D-09
    2.632252501025D-10 1.000000000000D+00 2.180000000000D+03 0.000000000000D+00
    2.000000000000D+00 0.000000000000D+00-1.117587089539D-08 7.100000000000D+01
    2.193180000000D+05 4.000000000000D+00
20 21 10 19 14  0  0.0 5.185613408685D-04-2.273736754432D-13 0.000000000000D+00
    9.700000000000D+01 3.987500000000D+01 5.528087409887D-09-1.034159285525D+00
    2.173706889153D-06 5.526407388970D-03 4.120171070099D-06 5.153667119980D+03
    2.232000000000D+05 5.215406417847D-08 1.102488170372D+00-2.235174179077D-08
    9.397892387940D-01 2.884687500000D+02 3.005208644146D+00-8.702862509156D-09
    3.935878230841D-10 1.000000000000D+00 2.180000000000D+03 0.000000000000D+00
    2.000000000000D+00 0.000000000000D+00-8.381903171539D-09 9.700000000000D+01
    2.193180000000D+05 4.000000000000D+00
 9 21 10 19 14  0  0.0-3.618667833507D-04-1.136868377216D-13 0.000000000000D+00
    4.400000000000D+01-7.221875000000D+01 4.749483549340D-09 4.533110107717D-01
   -3.807246685028D-06 2.287014038302D-03 8.644536137581D-06 5.153692296982D+03
    2.232000000000D+05-1.490116119385D-08 2.282662406577D+00-5.774199962616D-08
    9.537024352945D-01 2.090625000000D+02 1.820329588788D+00-8.214270728776D-09
   -6.143113028173D-10 1.000000000000D+00 2.180000000000D+03 0.000000000000D+00
    2.000000000000D+00 0.000000000000D+00 1.396983861923D-09 4.400000000000D+01
    2.193180000000D+05 4.000000000000D+00
13 21 10 19 14  0  0.0 2.018790692091D-04 5.570655048359D-12 0.000000000000D+00
    6.800000000000D+01-5.256250000000D+01 4.363396038674D-09-5.241671260990D-01
   -2.775341272354D-06 5.598060670309D-03 9.583309292793D-06 5.153685222626D+03
    2.232000000000D+05-5.401670932770D-08 2.433598805318D+00 8.754432201385D-08
    9.684651176023D-01 1.966875000000D+02 9.743391169751D-01-8.032120284336D-09
   -5.760954252583D-10 1.000000000000D+00 2.180000000000D+03 0.000000000000D+00
    2.000000000000D+00 0.000000000000D+00-1.117587089539D-08 6.800000000000D+01
    2.193180000000D+05 4.000000000000D+00
 5 21 10 19 14  0  0.0-5.818437784910D-05-1.250555214938D-12 0.000000000000D+00
    6.900000000000D+01 2.909375000000D+01 5.160572101399D-09 4.131822930324D-01
    1.702457666397D-06 6.048942916095D-03 3.881752490997D-06 5.153596033096D+03
    2.232000000000D+05 0.000000000000D+00 1.214353448981D+00 3.725290298462D-08
    9.576268139835D-01 3.025937500000D+02 1.010273863630D+00-8.593929400226D-09
    1.621496113250D-10 1.000000000000D+00 2.180000000000D+03 0.000000000000D+00
    2.000000000000D+00 0.000000000000D+00-1.117587089539D-08 6.900000000000D+01
    2.193180000000D+05 4.000000000000D+00
